[{"OBJECT_NAME":"COSMOS 2433 (720)","OBJECT_ID":"2007-052A","EPOCH":"2026-03-04T06:30:31.456224","MEAN_MOTION":2.1310386,"ECCENTRICITY":0.00020685,"INCLINATION":65.6349,"RA_OF_ASC_NODE":319.4662,"ARG_OF_PERICENTER":271.3708,"MEAN_ANOMALY":88.6643,"EPHEMERIS_TYPE":0,"CLASSIFICATION_TYPE":"U","NORAD_CAT_ID":32275,"ELEMENT_SET_NO":999,"REV_AT_EPOCH":14282,"BSTAR":0,"MEAN_MOTION_DOT":-5.4e-7,"MEAN_MOTION_DDOT":0},{"OBJECT_NAME":"COSMOS 2432 (719)","OBJECT_ID":"2007-052B","EPOCH":"2026-03-03T22:03:34.325856","MEAN_MOTION":2.13102981,"ECCENTRICITY":0.001063,"INCLINATION":65.6511,"RA_OF_ASC_NODE":319.6039,"ARG_OF_PERICENTER":330.1271,"MEAN_ANOMALY":64.0556,"EPHEMERIS_TYPE":0,"CLASSIFICATION_TYPE":"U","NORAD_CAT_ID":32276,"ELEMENT_SET_NO":999,"REV_AT_EPOCH":14284,"BSTAR":0,"MEAN_MOTION_DOT":-5.3e-7,"MEAN_MOTION_DDOT":0},{"OBJECT_NAME":"COSMOS 2434 (721)","OBJECT_ID":"2007-065A","EPOCH":"2026-03-03T05:53:42.951264","MEAN_MOTION":2.1310116,"ECCENTRICITY":0.00038293,"INCLINATION":64.3184,"RA_OF_ASC_NODE":195.4861,"ARG_OF_PERICENTER":70.2306,"MEAN_ANOMALY":113.341,"EPHEMERIS_TYPE":0,"CLASSIFICATION_TYPE":"U","NORAD_CAT_ID":32393,"ELEMENT_SET_NO":999,"REV_AT_EPOCH":14151,"BSTAR":0,"MEAN_MOTION_DOT":-8.0e-8,"MEAN_MOTION_DDOT":0},{"OBJECT_NAME":"COSMOS 2436 (723)","OBJECT_ID":"2007-065C","EPOCH":"2026-03-04T01:08:09.746592","MEAN_MOTION":2.13099973,"ECCENTRICITY":0.00175306,"INCLINATION":64.3269,"RA_OF_ASC_NODE":195.53,"ARG_OF_PERICENTER":7.4777,"MEAN_ANOMALY":203.8673,"EPHEMERIS_TYPE":0,"CLASSIFICATION_TYPE":"U","NORAD_CAT_ID":32395,"ELEMENT_SET_NO":999,"REV_AT_EPOCH":14148,"BSTAR":0,"MEAN_MOTION_DOT":0,"MEAN_MOTION_DDOT":0},{"OBJECT_NAME":"COSMOS 2456 (730)","OBJECT_ID":"2009-070A","EPOCH":"2026-03-03T10:13:03.238752","MEAN_MOTION":2.13103384,"ECCENTRICITY":0.00063005,"INCLINATION":64.9483,"RA_OF_ASC_NODE":74.5788,"ARG_OF_PERICENTER":305.6154,"MEAN_ANOMALY":173.663,"EPHEMERIS_TYPE":0,"CLASSIFICATION_TYPE":"U","NORAD_CAT_ID":36111,"ELEMENT_SET_NO":999,"REV_AT_EPOCH":12617,"BSTAR":0,"MEAN_MOTION_DOT":1.9e-7,"MEAN_MOTION_DDOT":0},{"OBJECT_NAME":"COSMOS 2457 (733)","OBJECT_ID":"2009-070B","EPOCH":"2026-03-04T12:23:50.712288","MEAN_MOTION":2.13100837,"ECCENTRICITY":0.00021782,"INCLINATION":64.9344,"RA_OF_ASC_NODE":74.3876,"ARG_OF_PERICENTER":196.4363,"MEAN_ANOMALY":168.0672,"EPHEMERIS_TYPE":0,"CLASSIFICATION_TYPE":"U","NORAD_CAT_ID":36112,"ELEMENT_SET_NO":999,"REV_AT_EPOCH":12620,"BSTAR":0,"MEAN_MOTION_DOT":9.0e-8,"MEAN_MOTION_DDOT":0},{"OBJECT_NAME":"COSMOS 2460 (732)","OBJECT_ID":"2010-007C","EPOCH":"2026-03-04T01:40:53.845824","MEAN_MOTION":2.1310601,"ECCENTRICITY":0.00017925,"INCLINATION":65.4801,"RA_OF_ASC_NODE":318.0258,"ARG_OF_PERICENTER":14.3302,"MEAN_ANOMALY":8.4003,"EPHEMERIS_TYPE":0,"CLASSIFICATION_TYPE":"U","NORAD_CAT_ID":36402,"ELEMENT_SET_NO":999,"REV_AT_EPOCH":12449,"BSTAR":0,"MEAN_MOTION_DOT":-5.1e-7,"MEAN_MOTION_DDOT":0},{"OBJECT_NAME":"COSMOS 2476 (744)","OBJECT_ID":"2011-064A","EPOCH":"2026-03-04T08:42:38.018592","MEAN_MOTION":2.13103598,"ECCENTRICITY":0.00251811,"INCLINATION":65.2092,"RA_OF_ASC_NODE":76.4094,"ARG_OF_PERICENTER":241.3302,"MEAN_ANOMALY":145.2927,"EPHEMERIS_TYPE":0,"CLASSIFICATION_TYPE":"U","NORAD_CAT_ID":37867,"ELEMENT_SET_NO":999,"REV_AT_EPOCH":11153,"BSTAR":0,"MEAN_MOTION_DOT":1.4e-7,"MEAN_MOTION_DDOT":0},{"OBJECT_NAME":"COSMOS 2477 (745)","OBJECT_ID":"2011-064B","EPOCH":"2026-03-03T06:09:12.736224","MEAN_MOTION":2.13102695,"ECCENTRICITY":0.00222416,"INCLINATION":65.2151,"RA_OF_ASC_NODE":76.5253,"ARG_OF_PERICENTER":242.8811,"MEAN_ANOMALY":195.4983,"EPHEMERIS_TYPE":0,"CLASSIFICATION_TYPE":"U","NORAD_CAT_ID":37868,"ELEMENT_SET_NO":999,"REV_AT_EPOCH":11150,"BSTAR":0,"MEAN_MOTION_DOT":2.4e-7,"MEAN_MOTION_DDOT":0},{"OBJECT_NAME":"COSMOS 2475 (743)","OBJECT_ID":"2011-064C","EPOCH":"2026-03-04T20:06:01.961280","MEAN_MOTION":2.131015,"ECCENTRICITY":0.0028035,"INCLINATION":65.223,"RA_OF_ASC_NODE":76.4922,"ARG_OF_PERICENTER":254.5042,"MEAN_ANOMALY":272.4281,"EPHEMERIS_TYPE":0,"CLASSIFICATION_TYPE":"U","NORAD_CAT_ID":37869,"ELEMENT_SET_NO":999,"REV_AT_EPOCH":11154,"BSTAR":0,"MEAN_MOTION_DOT":1.0e-7,"MEAN_MOTION_DDOT":0},{"OBJECT_NAME":"COSMOS 2485 (747)","OBJECT_ID":"2013-019A","EPOCH":"2026-03-04T17:37:45.096672","MEAN_MOTION":2.13102927,"ECCENTRICITY":0.0025487,"INCLINATION":65.36,"RA_OF_ASC_NODE":77.1092,"ARG_OF_PERICENTER":236.8545,"MEAN_ANOMALY":122.9425,"EPHEMERIS_TYPE":0,"CLASSIFICATION_TYPE":"U","NORAD_CAT_ID":39155,"ELEMENT_SET_NO":999,"REV_AT_EPOCH":10005,"BSTAR":0,"MEAN_MOTION_DOT":1.2e-7,"MEAN_MOTION_DDOT":0},{"OBJECT_NAME":"COSMOS 2492 (754)","OBJECT_ID":"2014-012A","EPOCH":"2026-03-04T05:22:46.111584","MEAN_MOTION":2.13103085,"ECCENTRICITY":0.00132177,"INCLINATION":65.3578,"RA_OF_ASC_NODE":317.5055,"ARG_OF_PERICENTER":325.9773,"MEAN_ANOMALY":33.9986,"EPHEMERIS_TYPE":0,"CLASSIFICATION_TYPE":"U","NORAD_CAT_ID":39620,"ELEMENT_SET_NO":999,"REV_AT_EPOCH":9300,"BSTAR":0,"MEAN_MOTION_DOT":-5.1e-7,"MEAN_MOTION_DDOT":0},{"OBJECT_NAME":"COSMOS 2500 (755)","OBJECT_ID":"2014-032A","EPOCH":"2026-03-03T10:57:43.256160","MEAN_MOTION":2.13105742,"ECCENTRICITY":0.0005202,"INCLINATION":65.2935,"RA_OF_ASC_NODE":317.2872,"ARG_OF_PERICENTER":202.8793,"MEAN_ANOMALY":157.1573,"EPHEMERIS_TYPE":0,"CLASSIFICATION_TYPE":"U","NORAD_CAT_ID":40001,"ELEMENT_SET_NO":999,"REV_AT_EPOCH":9120,"BSTAR":0,"MEAN_MOTION_DOT":-4.8e-7,"MEAN_MOTION_DDOT":0},{"OBJECT_NAME":"COSMOS 2501 (702K)","OBJECT_ID":"2014-075A","EPOCH":"2026-03-01T20:09:56.477664","MEAN_MOTION":2.13101099,"ECCENTRICITY":0.00207353,"INCLINATION":63.617,"RA_OF_ASC_NODE":194.0851,"ARG_OF_PERICENTER":205.716,"MEAN_ANOMALY":154.1408,"EPHEMERIS_TYPE":0,"CLASSIFICATION_TYPE":"U","NORAD_CAT_ID":40315,"ELEMENT_SET_NO":999,"REV_AT_EPOCH":8756,"BSTAR":0,"MEAN_MOTION_DOT":-1.5e-7,"MEAN_MOTION_DDOT":0},{"OBJECT_NAME":"COSMOS 2514 (751)","OBJECT_ID":"2016-008A","EPOCH":"2026-03-04T15:21:56.258208","MEAN_MOTION":2.13102631,"ECCENTRICITY":0.0009131,"INCLINATION":65.0825,"RA_OF_ASC_NODE":316.5971,"ARG_OF_PERICENTER":209.2721,"MEAN_ANOMALY":150.7376,"EPHEMERIS_TYPE":0,"CLASSIFICATION_TYPE":"U","NORAD_CAT_ID":41330,"ELEMENT_SET_NO":999,"REV_AT_EPOCH":7839,"BSTAR":0,"MEAN_MOTION_DOT":-5.2e-7,"MEAN_MOTION_DDOT":0},{"OBJECT_NAME":"COSMOS 2522 (752)","OBJECT_ID":"2017-055A","EPOCH":"2026-03-01T15:54:04.254336","MEAN_MOTION":2.13101627,"ECCENTRICITY":0.00071239,"INCLINATION":64.0792,"RA_OF_ASC_NODE":195.5407,"ARG_OF_PERICENTER":226.6423,"MEAN_ANOMALY":133.2575,"EPHEMERIS_TYPE":0,"CLASSIFICATION_TYPE":"U","NORAD_CAT_ID":42939,"ELEMENT_SET_NO":999,"REV_AT_EPOCH":6568,"BSTAR":0,"MEAN_MOTION_DOT":-1.4e-7,"MEAN_MOTION_DDOT":0},{"OBJECT_NAME":"COSMOS 2527 (756)","OBJECT_ID":"2018-053A","EPOCH":"2026-03-02T02:14:03.799392","MEAN_MOTION":2.13101983,"ECCENTRICITY":0.0009594,"INCLINATION":65.5168,"RA_OF_ASC_NODE":77.4788,"ARG_OF_PERICENTER":245.0851,"MEAN_ANOMALY":114.8694,"EPHEMERIS_TYPE":0,"CLASSIFICATION_TYPE":"U","NORAD_CAT_ID":43508,"ELEMENT_SET_NO":999,"REV_AT_EPOCH":5999,"BSTAR":0,"MEAN_MOTION_DOT":3.6e-7,"MEAN_MOTION_DDOT":0}]
